{
  "type": "FeatureCollection",
  "features": [
    {
      "type": "Feature",
      "properties": {
        "norad_id": 67096,
        "name": "STARLINK-36228",
        "group": "last-30-days",
        "lat": 27.779958654482122,
        "lon": -125.70255340914848,
        "alt_km": 303.09582829662486,
        "timestamp": "2025-12-22T04:03:37.890970+00:00",
        "meta_object_name": "STARLINK-36228",
        "meta_object_id": "2025-298X",
        "meta_epoch": "2025-12-21T20:00:01.999008",
        "meta_mean_motion": 15.89913837,
        "meta_eccentricity": 0.0003811,
        "meta_inclination": 69.9975,
        "meta_ra_of_asc_node": 224.2053,
        "meta_arg_of_pericenter": 264.8818,
        "meta_mean_anomaly": 3.488,
        "meta_ephemeris_type": 0,
        "meta_classification_type": "U",
        "meta_norad_cat_id": 67096,
        "meta_element_set_no": 999,
        "meta_rev_at_epoch": 238,
        "meta_bstar": -0.0014417,
        "meta_mean_motion_dot": -0.0043221,
        "meta_mean_motion_ddot": 6.2932e-05,
        "tle_line1": "1 67096U 25298X   25355.83335647 -.00432210  62932-4 -14417-2 0  9992",
        "tle_line2": "2 67096  69.9975 224.2053 0003811 264.8818   3.4880 15.89913837  2383"
      },
      "geometry": {
        "type": "Point",
        "coordinates": [
          -125.70255340914848,
          27.779958654482122
        ]
      }
    },
    {
      "type": "Feature",
      "properties": {
        "norad_id": 67097,
        "name": "STARLINK-36222",
        "group": "last-30-days",
        "lat": 29.545299057599255,
        "lon": -124.85293185264923,
        "alt_km": 302.7362573679211,
        "timestamp": "2025-12-22T04:03:37.890982+00:00",
        "meta_object_name": "STARLINK-36222",
        "meta_object_id": "2025-298Y",
        "meta_epoch": "2025-12-21T20:00:01.999008",
        "meta_mean_motion": 15.89957075,
        "meta_eccentricity": 0.0004033,
        "meta_inclination": 69.9973,
        "meta_ra_of_asc_node": 224.2024,
        "meta_arg_of_pericenter": 266.2665,
        "meta_mean_anomaly": 3.9514,
        "meta_ephemeris_type": 0,
        "meta_classification_type": "U",
        "meta_norad_cat_id": 67097,
        "meta_element_set_no": 999,
        "meta_rev_at_epoch": 238,
        "meta_bstar": -0.001332,
        "meta_mean_motion_dot": -0.00400363,
        "meta_mean_motion_ddot": 5.4814e-05,
        "tle_line1": "1 67097U 25298Y   25355.83335647 -.00400363  54814-4 -13320-2 0  9999",
        "tle_line2": "2 67097  69.9973 224.2024 0004033 266.2665   3.9514 15.89957075  2384"
      },
      "geometry": {
        "type": "Point",
        "coordinates": [
          -124.85293185264923,
          29.545299057599255
        ]
      }
    },
    {
      "type": "Feature",
      "properties": {
        "norad_id": 67098,
        "name": "STARLINK-36205",
        "group": "last-30-days",
        "lat": 31.425071267404643,
        "lon": -123.91099926170867,
        "alt_km": 301.5842598269146,
        "timestamp": "2025-12-22T04:03:37.890994+00:00",
        "meta_object_name": "STARLINK-36205",
        "meta_object_id": "2025-298Z",
        "meta_epoch": "2025-12-21T20:00:01.999008",
        "meta_mean_motion": 15.89811145,
        "meta_eccentricity": 0.0002832,
        "meta_inclination": 69.9973,
        "meta_ra_of_asc_node": 224.2,
        "meta_arg_of_pericenter": 275.7736,
        "meta_mean_anomaly": 356.5457,
        "meta_ephemeris_type": 0,
        "meta_classification_type": "U",
        "meta_norad_cat_id": 67098,
        "meta_element_set_no": 999,
        "meta_rev_at_epoch": 244,
        "meta_bstar": -0.00026367,
        "meta_mean_motion_dot": -0.00079682,
        "meta_mean_motion_ddot": 5.9799e-06,
        "tle_line1": "1 67098U 25298Z   25355.83335647 -.00079682  59799-5 -26367-3 0  9990",
        "tle_line2": "2 67098  69.9973 224.2000 0002832 275.7736 356.5457 15.89811145  2445"
      },
      "geometry": {
        "type": "Point",
        "coordinates": [
          -123.91099926170867,
          31.425071267404643
        ]
      }
    },
    {
      "type": "Feature",
      "properties": {
        "norad_id": 67099,
        "name": "STARLINK-36193",
        "group": "last-30-days",
        "lat": 34.4350078057963,
        "lon": -122.31223161505272,
        "alt_km": 300.9048862061072,
        "timestamp": "2025-12-22T04:03:37.891004+00:00",
        "meta_object_name": "STARLINK-36193",
        "meta_object_id": "2025-298AA",
        "meta_epoch": "2025-12-21T20:00:01.999008",
        "meta_mean_motion": 15.89966514,
        "meta_eccentricity": 0.0003159,
        "meta_inclination": 69.9976,
        "meta_ra_of_asc_node": 224.1965,
        "meta_arg_of_pericenter": 280.3548,
        "meta_mean_anomaly": 355.1069,
        "meta_ephemeris_type": 0,
        "meta_classification_type": "U",
        "meta_norad_cat_id": 67099,
        "meta_element_set_no": 999,
        "meta_rev_at_epoch": 238,
        "meta_bstar": -0.00060259,
        "meta_mean_motion_dot": -0.00181925,
        "meta_mean_motion_ddot": 1.473e-05,
        "tle_line1": "1 67099U 25298AA  25355.83335647 -.00181925  14730-4 -60259-3 0  9998",
        "tle_line2": "2 67099  69.9976 224.1965 0003159 280.3548 355.1069 15.89966514  2382"
      },
      "geometry": {
        "type": "Point",
        "coordinates": [
          -122.31223161505272,
          34.4350078057963
        ]
      }
    },
    {
      "type": "Feature",
      "properties": {
        "norad_id": 67100,
        "name": "STARLINK-36215",
        "group": "last-30-days",
        "lat": 36.06251750956045,
        "lon": -121.39416079349716,
        "alt_km": 301.11623816774863,
        "timestamp": "2025-12-22T04:03:37.891014+00:00",
        "meta_object_name": "STARLINK-36215",
        "meta_object_id": "2025-298AB",
        "meta_epoch": "2025-12-21T20:00:01.999008",
        "meta_mean_motion": 15.90004593,
        "meta_eccentricity": 0.000372,
        "meta_inclination": 69.9974,
        "meta_ra_of_asc_node": 224.1943,
        "meta_arg_of_pericenter": 269.7484,
        "meta_mean_anomaly": 7.4474,
        "meta_ephemeris_type": 0,
        "meta_classification_type": "U",
        "meta_norad_cat_id": 67100,
        "meta_element_set_no": 999,
        "meta_rev_at_epoch": 244,
        "meta_bstar": -0.00052335,
        "meta_mean_motion_dot": -0.00158499,
        "meta_mean_motion_ddot": 1.2143e-05,
        "tle_line1": "1 67100U 25298AB  25355.83335647 -.00158499  12143-4 -52335-3 0  9993",
        "tle_line2": "2 67100  69.9974 224.1943 0003720 269.7484   7.4474 15.90004593  2449"
      },
      "geometry": {
        "type": "Point",
        "coordinates": [
          -121.39416079349716,
          36.06251750956045
        ]
      }
    },
    {
      "type": "Feature",
      "properties": {
        "norad_id": 67101,
        "name": "STARLINK-36200",
        "group": "last-30-days",
        "lat": 32.93217139266587,
        "lon": -123.12501001320534,
        "alt_km": 301.53651591318066,
        "timestamp": "2025-12-22T04:03:37.891024+00:00",
        "meta_object_name": "STARLINK-36200",
        "meta_object_id": "2025-298AC",
        "meta_epoch": "2025-12-21T20:00:01.999008",
        "meta_mean_motion": 15.89894394,
        "meta_eccentricity": 0.0003701,
        "meta_inclination": 69.9977,
        "meta_ra_of_asc_node": 224.1989,
        "meta_arg_of_pericenter": 275.3854,
        "meta_mean_anomaly": 358.4882,
        "meta_ephemeris_type": 0,
        "meta_classification_type": "U",
        "meta_norad_cat_id": 67101,
        "meta_element_set_no": 999,
        "meta_rev_at_epoch": 244,
        "meta_bstar": -0.00040437,
        "meta_mean_motion_dot": -0.00122078,
        "meta_mean_motion_ddot": 8.7948e-06,
        "tle_line1": "1 67101U 25298AC  25355.83335647 -.00122078  87948-5 -40437-3 0  9994",
        "tle_line2": "2 67101  69.9977 224.1989 0003701 275.3854 358.4882 15.89894394  2442"
      },
      "geometry": {
        "type": "Point",
        "coordinates": [
          -123.12501001320534,
          32.93217139266587
        ]
      }
    },
    {
      "type": "Feature",
      "properties": {
        "norad_id": 67102,
        "name": "STARLINK-36255",
        "group": "last-30-days",
        "lat": -14.260055378808975,
        "lon": 94.92360387911832,
        "alt_km": 292.6281361509382,
        "timestamp": "2025-12-22T04:03:37.891034+00:00",
        "meta_object_name": "STARLINK-36255",
        "meta_object_id": "2025-299A",
        "meta_epoch": "2025-12-21T20:00:01.999008",
        "meta_mean_motion": 15.93879683,
        "meta_eccentricity": 0.0001661,
        "meta_inclination": 42.9987,
        "meta_ra_of_asc_node": 261.1902,
        "meta_arg_of_pericenter": 269.3634,
        "meta_mean_anomaly": 162.3963,
        "meta_ephemeris_type": 0,
        "meta_classification_type": "U",
        "meta_norad_cat_id": 67102,
        "meta_element_set_no": 999,
        "meta_rev_at_epoch": 227,
        "meta_bstar": -0.00021401,
        "meta_mean_motion_dot": -0.00084107,
        "meta_mean_motion_ddot": 1.0696e-05,
        "tle_line1": "1 67102U 25299A   25355.83335647 -.00084107  10696-4 -21401-3 0  9991",
        "tle_line2": "2 67102  42.9987 261.1902 0001661 269.3634 162.3963 15.93879683  2275"
      },
      "geometry": {
        "type": "Point",
        "coordinates": [
          94.92360387911832,
          -14.260055378808975
        ]
      }
    }
  ]
}